NORAD_CAT_ID,OBJECT_NAME,OBJECT_TYPE,EPOCH,MEAN_MOTION,ECCENTRICITY,INCLINATION,RA_OF_ASC_NODE,ARG_OF_PERICENTER,MEAN_ANOMALY,BSTAR,MEAN_MOTION_DOT,MEAN_MOTION_DDOT,TLE_LINE0,TLE_LINE1,TLE_LINE2,SEMIMAJOR_AXIS,PERIOD,APOGEE,PERIGEE,DECAYED
53289.0,STARLINK-4176,PAYLOAD,2022-11-05 02:03:42,15.08857635,0.0001404,53.2179,258.7258,65.7865,294.3274,-0.00012387,-2.26e-05,0.0,0 STARLINK-4176,1 53289U 22086AZ  22309.08591161 -.00002260  00000-0 -12387-3 0  9998,2 53289  53.2179 258.7258 0001404  65.7865 294.3274 15.08857635 16825,6917.826,95.436,540.663,538.72,0.0
53289.0,STARLINK-4176,PAYLOAD,2022-11-05 06:49:52,15.08845374,0.0001574,53.2176,257.8371,51.4253,308.688,-8.9723e-05,-1.716e-05,0.0,0 STARLINK-4176,1 53289U 22086AZ  22309.28463753 -.00001716  00000-0 -89723-4 0  9999,2 53289  53.2176 257.8371 0001574  51.4253 308.6880 15.08845374 17010,6917.864000000001,95.437,540.818,538.64,0.0
53289.0,STARLINK-4176,PAYLOAD,2022-11-06 03:29:55,15.08824445,0.0001534,53.2172,253.9646,51.88,308.233,-0.00014778,-2.638e-05,0.0,0 STARLINK-4176,1 53289U 22086AZ  22310.14577788 -.00002638  00000-0 -14778-3 0  9991,2 53289  53.2172 253.9646 0001534  51.8800 308.2330 15.08824445 16983,6917.928000000001,95.439,540.854,538.732,0.0
53289.0,STARLINK-4176,PAYLOAD,2022-11-06 05:05:18,15.08826001,0.0001523,53.2177,253.6672,54.8324,305.281,-0.00014671,-2.621e-05,0.0,0 STARLINK-4176,1 53289U 22086AZ  22310.21201776 -.00002621  00000-0 -14671-3 0  9994,2 53289  53.2177 253.6672 0001523  54.8324 305.2810 15.08826001 17156,6917.9230000000025,95.438,540.842,538.735,0.0
53289.0,STARLINK-4176,PAYLOAD,2022-11-07 04:56:04,15.08820135,0.0001262999999999,53.2174,249.2123,73.3603,286.7528,0.00023166,3.399e-05,0.0,0 STARLINK-4176,1 53289U 22086AZ  22311.20561062  .00003399  00000-0  23166-3 0  9991,2 53289  53.2174 249.2123 0001263  73.3603 286.7528 15.08820135 17142,6917.941,95.439,540.68,538.932,0.0
53289.0,STARLINK-4176,PAYLOAD,2022-11-07 06:31:27,15.0882331,0.0001264,53.2174,248.915,72.5527,287.5604,0.00019468,2.81e-05,0.0,0 STARLINK-4176,1 53289U 22086AZ  22311.27185067  .00002810  00000-0  19468-3 0  9992,2 53289  53.2174 248.9150 0001264  72.5527 287.5604 15.08823310 17316,6917.931,95.439,540.6709999999998,538.922,0.0
53289.0,STARLINK-4176,PAYLOAD,2022-11-08 04:46:50,15.0883543,0.0001242,53.2169,244.7509,78.6572,281.456,0.00046769,7.162e-05,0.0,0 STARLINK-4176,1 53289U 22086AZ  22312.19919983  .00007162  00000-0  46769-3 0  9995,2 53289  53.2169 244.7509 0001242  78.6572 281.4560 15.08835430 17292,6917.894,95.438,540.619,538.9,0.0
53289.0,STARLINK-4176,PAYLOAD,2022-11-08 14:19:09,15.0885515,0.0001375,53.2165,242.9662,59.5925,300.5203,0.00017557,2.508e-05,0.0,0 STARLINK-4176,1 53289U 22086AZ  22312.59663454  .00002508  00000-0  17557-3 0  9990,2 53289  53.2165 242.9662 0001375  59.5925 300.5203 15.08855150 17350,6917.834,95.437,540.65,538.748,0.0
53289.0,STARLINK-4176,PAYLOAD,2022-11-09 03:02:12,15.08870152,0.0001533,53.2169,240.5897,60.0796,300.0348,0.00019374,2.799e-05,0.0,0 STARLINK-4176,1 53289U 22086AZ  22313.12653824  .00002799  00000-0  19374-3 0  9991,2 53289  53.2169 240.5897 0001533  60.0796 300.0348 15.08870152 17430,6917.788000000001,95.436,540.714,538.5930000000002,0.0
53289.0,STARLINK-4176,PAYLOAD,2022-11-09 12:34:33,15.08842937,0.0001903,53.2175,238.8043,58.2573,301.8604,1.2847e-05,-8.4e-07,0.0,0 STARLINK-4176,1 53289U 22086AZ  22313.52399834 -.00000084  00000-0  12847-4 0  9998,2 53289  53.2175 238.8043 0001903  58.2573 301.8604 15.08842937 17651,6917.871,95.437,541.053,538.42,0.0
53289.0,STARLINK-4176,PAYLOAD,2022-11-10 01:17:39,15.08839917,0.0001375999999999,53.2176,236.4241,57.1049,303.0076,-0.00024142,-4.128e-05,0.0,0 STARLINK-4176,1 53289U 22086AZ  22314.05392778 -.00004128  00000-0 -24142-3 0  9991,2 53289  53.2176 236.4241 0001376  57.1049 303.0076 15.08839917 17578,6917.880999999999,95.438,540.698,538.794,0.0
53289.0,STARLINK-4176,PAYLOAD,2022-11-10 12:25:21,15.08840113,0.0001391,53.2168,234.343,61.8331,298.2801,-0.0001979,-3.436e-05,0.0,0 STARLINK-4176,1 53289U 22086AZ  22314.51760468 -.00003436  00000-0 -19790-3 0  9991,2 53289  53.2168 234.3430 0001391  61.8331 298.2801 15.08840113 17806,6917.88,95.438,540.707,538.783,0.0
53289.0,STARLINK-4176,PAYLOAD,2022-11-11 04:19:12,15.08843145,0.0002013,53.2171,231.3725,47.5212,312.595,-0.00020432,-3.539e-05,0.0,0 STARLINK-4176,1 53289U 22086AZ  22315.18000454 -.00003539  00000-0 -20432-3 0  9996,2 53289  53.2171 231.3725 0002013  47.5212 312.5950 15.08843145 17741,6917.871,95.437,541.128,538.3430000000002,0.0
53289.0,STARLINK-4176,PAYLOAD,2022-11-11 21:48:27,15.0882379,0.0001716,53.2173,228.101,44.8794,315.2336,9.6763e-05,1.252e-05,0.0,0 STARLINK-4176,1 53289U 22086AZ  22315.90864853  .00001252  00000-0  96763-4 0  9996,2 53289  53.2173 228.1010 0001716  44.8794 315.2336 15.08823790 18011,6917.93,95.439,540.982,538.6080000000002,0.0
53289.0,STARLINK-4176,PAYLOAD,2022-11-12 04:09:59,15.08831691,0.0001564,53.2177,226.9106,55.2613,304.8526,6.5073e-05,7.48e-06,0.0,0 STARLINK-4176,1 53289U 22086AZ  22316.17360678  .00000748  00000-0  65073-4 0  9991,2 53289  53.2177 226.9106 0001564  55.2613 304.8526 15.08831691 18052,6917.906,95.438,540.8530000000002,538.689,0.0
53289.0,STARLINK-4176,PAYLOAD,2022-11-12 21:39:13,15.08842182,0.0001629999999999,53.2178,223.6404,53.6448,306.4694,0.00013335,1.835e-05,0.0,0 STARLINK-4176,1 53289U 22086AZ  22316.90223901  .00001835  00000-0  13335-3 0  9990,2 53289  53.2178 223.6404 0001630  53.6448 306.4694 15.08842182 18163,6917.874,95.437,540.866,538.611,0.0
53289.0,STARLINK-4176,PAYLOAD,2022-11-13 04:00:46,15.08846046,0.0001466,53.2177,222.4512,50.9898,309.1225,4.9774e-05,5.04e-06,0.0,0 STARLINK-4176,1 53289U 22086AZ  22317.16719927  .00000504  00000-0  49774-4 0  9996,2 53289  53.2177 222.4512 0001466  50.9898 309.1225 15.08846046 18045,6917.861999999999,95.437,540.741,538.7130000000002,0.0
53289.0,STARLINK-4176,PAYLOAD,2022-11-13 18:19:16,15.08826362,0.0001774999999999,53.2186,219.7724,55.9402,304.1758,-5.5844e-05,-1.176e-05,0.0,0 STARLINK-4176,1 53289U 22086AZ  22317.76338009 -.00001176  00000-0 -55844-4 0  9993,2 53289  53.2186 219.7724 0001775  55.9402 304.1758 15.08826362 18133,6917.922,95.438,541.015,538.559,0.0
53289.0,STARLINK-4176,PAYLOAD,2022-11-14 03:51:35,15.088185500000002,0.0001754,53.2175,217.9896,54.2434,305.8721,-0.00012238,-2.234e-05,0.0,0 STARLINK-4176,1 53289U 22086AZ  22318.16083112 -.00002234  00000-0 -12238-3 0  9995,2 53289  53.2175 217.9896 0001754  54.2434 305.8721 15.08818550 18199,6917.946,95.439,541.024,538.5980000000002,0.0
53289.0,STARLINK-4176,PAYLOAD,2022-11-14 10:13:08,15.08824977,0.0001720999999999,53.2179,216.8002,55.6557,304.4597,-5.142e-05,-1.106e-05,0.0,0 STARLINK-4176,1 53289U 22086AZ  22318.42578715 -.00001106  00000-0 -51420-4 0  9996,2 53289  53.2179 216.8002 0001721  55.6557 304.4597 15.08824977 18393,6917.926,95.439,540.982,538.601,0.0
53289.0,STARLINK-4176,PAYLOAD,2022-11-14 18:10:03,15.08834066,0.0001619,53.2173,215.3132,53.2224,306.8916,-6.417800000000001e-05,-1.309e-05,0.0,0 STARLINK-4176,1 53289U 22086AZ  22318.75698293 -.00001309  00000-0 -64178-4 0  9995,2 53289  53.2173 215.3132 0001619  53.2224 306.8916 15.08834066 18443,6917.899,95.438,540.884,538.644,0.0
53289.0,STARLINK-4176,PAYLOAD,2022-11-14 21:20:49,15.08838735,0.0001526,53.2175,214.7186,59.5889,300.5253,-5.201300000000001e-05,-1.116e-05,0.0,0 STARLINK-4176,1 53289U 22086AZ  22318.88945997 -.00001116  00000-0 -52013-4 0  9996,2 53289  53.2175 214.7186 0001526  59.5889 300.5253 15.08838735 18307,6917.884,95.438,540.805,538.694,0.0
53289.0,STARLINK-4176,PAYLOAD,2022-11-15 10:03:54,15.08840375,0.000147,53.2173,212.34,65.5729,294.5416,-5.8924e-05,-1.226e-05,0.0,0 STARLINK-4176,1 53289U 22086AZ  22319.41938035 -.00001226  00000-0 -58924-4 0  9990,2 53289  53.2173 212.3400 0001470  65.5729 294.5416 15.08840375 18548,6917.879,95.438,540.761,538.727,0.0
53289.0,STARLINK-4176,PAYLOAD,2022-11-15 21:11:36,15.08859781,0.0002262,53.2171,210.2585,49.5129,310.606,-0.00027192,-4.616e-05,0.0,0 STARLINK-4176,1 53289U 22086AZ  22319.88306067 -.00004616  00000-0 -27192-3 0  9993,2 53289  53.2171 210.2585 0002262  49.5129 310.6060 15.08859781 18617,6917.82,95.436,541.25,538.12,0.0
53289.0,STARLINK-4176,PAYLOAD,2022-11-16 01:57:46,15.0882562,0.0001774999999999,53.2169,209.3664,57.9974,302.1191,0.00023688,3.482e-05,0.0,0 STARLINK-4176,1 53289U 22086AZ  22320.08178608  .00003482  00000-0  23688-3 0  9999,2 53289  53.2169 209.3664 0001775  57.9974 302.1191 15.08825620 18481,6917.924,95.438,541.0169999999998,538.561,0.0
53289.0,STARLINK-4176,PAYLOAD,2022-11-16 09:54:41,15.08834067,0.0001813,53.2168,207.8795,57.1198,302.9968,0.00015828,2.231e-05,0.0,0 STARLINK-4176,1 53289U 22086AZ  22320.41298524  .00002231  00000-0  15828-3 0  9994,2 53289  53.2168 207.8795 0001813  57.1198 302.9968 15.08834067 18699,6917.899,95.438,541.018,538.509,0.0
53289.0,STARLINK-4176,PAYLOAD,2022-11-17 01:48:33,15.08841654,0.0001714,53.2165,204.9054,54.7038,305.4114,2.7611e-05,1.51e-06,0.0,0 STARLINK-4176,1 53289U 22086AZ  22321.07538499  .00000151  00000-0  27611-4 0  9998,2 53289  53.2165 204.9054 0001714  54.7038 305.4114 15.08841654 18633,6917.875,95.437,540.9259999999998,538.555,0.0
53289.0,STARLINK-4176,PAYLOAD,2022-11-18 01:39:19,15.0884461,0.0001695,53.217,200.4449,58.109,302.0067,1.6509e-05,-2.5e-07,0.0,0 STARLINK-4176,1 53289U 22086AZ  22322.06898104 -.00000025  00000-0  16509-4 0  9995,2 53289  53.2170 200.4449 0001695  58.1090 302.0067 15.08844610 18941,6917.866,95.437,540.904,538.559,0.0
53289.0,STARLINK-4176,PAYLOAD,2022-11-18 22:19:21,15.08835148,0.0001694,53.2169,196.5793,58.1874,301.9283,1.1071e-05,-1.12e-06,0.0,0 STARLINK-4176,1 53289U 22086AZ  22322.93010714 -.00000112  00000-0  11071-4 0  9990,2 53289  53.2169 196.5793 0001694  58.1874 301.9283 15.08835148 18916,6917.895,95.438,540.932,538.5880000000002,0.0
